$$SOE
2459580.500000000, A.D. 2022-Jan-01 00:00:00.0000, 3.849886235103176E+08, -7.162786290485322E+07, 2.425368079673495E+07,
2459587.500000000, A.D. 2022-Jan-08 00:00:00.0000, 3.879110408707104E+08, -6.143723147473735E+07, 2.379757142265536E+07,
2459594.500000000, A.D. 2022-Jan-15 00:00:00.0000, 3.905245461379834E+08, -5.119780160164722E+07, 2.332246412405652E+07,
2459601.500000000, A.D. 2022-Jan-22 00:00:00.0000, 3.928296285487333E+08, -4.091807226973299E+07, 2.282889140685480E+07,
2459608.500000000, A.D. 2022-Jan-29 00:00:00.0000, 3.948269513118513E+08, -3.060642574438785E+07, 2.231738819985444E+07,
2459615.500000000, A.D. 2022-Feb-05 00:00:00.0000, 3.965173426636803E+08, -2.027112912359221E+07, 2.178849169553122E+07,
2459622.500000000, A.D. 2022-Feb-12 00:00:00.0000, 3.979017894664258E+08, -9.920337158488328E+06, 2.124274093654124E+07,
2459629.500000000, A.D. 2022-Feb-19 00:00:00.0000, 3.989814320152162E+08, 4.379060509561021E+05, 2.068067646105387E+07,
2459636.500000000, A.D. 2022-Feb-26 00:00:00.0000, 3.997575587345390E+08, 1.079566578494478E+07, 2.010284006646663E+07,
2459643.500000000, A.D. 2022-Mar-05 00:00:00.0000, 4.002316009151340E+08, 2.114511526123101E+07, 1.950977462477133E+07,
2459650.500000000, A.D. 2022-Mar-12 00:00:00.0000, 4.004051277044365E+08, 3.147853397438211E+07, 1.890202392209404E+07,
2459657.500000000, A.D. 2022-Mar-19 00:00:00.0000, 4.002798414127522E+08, 4.178830586303338E+07, 1.828013251645717E+07,
2459664.500000000, A.D. 2022-Mar-26 00:00:00.0000, 3.998575731488481E+08, 5.206691731613895E+07, 1.764464560959803E+07,
2459671.500000000, A.D. 2022-Apr-02 00:00:00.0000, 3.991402788444709E+08, 6.230695497803472E+07, 1.699610892053591E+07,
2459678.500000000, A.D. 2022-Apr-09 00:00:00.0000, 3.981300359314459E+08, 7.250110337091495E+07, 1.633506853475264E+07,
2459685.500000000, A.D. 2022-Apr-16 00:00:00.0000, 3.968290410178845E+08, 8.264214300116061E+07, 1.566207074785791E+07,
2459692.500000000, A.D. 2022-Apr-23 00:00:00.0000, 3.952396072833767E+08, 9.272295004803608E+07, 1.497766210736180E+07,
2459699.500000000, A.D. 2022-Apr-30 00:00:00.0000, 3.933641597178777E+08, 1.027364954038920E+08, 1.428238964016138E+07,
2459706.500000000, A.D. 2022-May-07 00:00:00.0000, 3.912052312623224E+08, 1.126758411014897E+08, 1.357680082247943E+07,
2459713.500000000, A.D. 2022-May-14 00:00:00.0000, 3.887654612302636E+08, 1.225341371752319E+08, 1.286144341153400E+07,
2459720.500000000, A.D. 2022-May-21 00:00:00.0000, 3.860475939703330E+08, 1.323046197254245E+08, 1.213686538622802E+07,
2459727.500000000, A.D. 2022-May-28 00:00:00.0000, 3.830544772839583E+08, 1.419806092367049E+08, 1.140361496168330E+07,
2459734.500000000, A.D. 2022-Jun-04 00:00:00.0000, 3.797890608693691E+08, 1.515555088468047E+08, 1.066224062590256E+07,
2459741.500000000, A.D. 2022-Jun-11 00:00:00.0000, 3.762543949308458E+08, 1.610228025761560E+08, 9.913291184740096E+06,
2459748.500000000, A.D. 2022-Jun-18 00:00:00.0000, 3.724536289865167E+08, 1.703760535391544E+08, 9.157315811987005E+06,
2459755.500000000, A.D. 2022-Jun-25 00:00:00.0000, 3.683900108987891E+08, 1.796089021103732E+08, 8.394864098373063E+06,
2459762.500000000, A.D. 2022-Jul-02 00:00:00.0000, 3.640668862555824E+08, 1.887150639853262E+08, 7.626486080917627E+06,
2459769.500000000, A.D. 2022-Jul-09 00:00:00.0000, 3.594876984855368E+08, 1.976883283169602E+08, 6.852732230217203E+06,
2459776.500000000, A.D. 2022-Jul-16 00:00:00.0000, 3.546559896417245E+08, 2.065225570144408E+08, 6.074153488079041E+06,
2459783.500000000, A.D. 2022-Jul-23 00:00:00.0000, 3.495753996436371E+08, 2.152116852902887E+08, 5.291301563187137E+06,
2459790.500000000, A.D. 2022-Jul-30 00:00:00.0000, 3.442496640584225E+08, 2.237497201153075E+08, 4.504729203586057E+06,
2459797.500000000, A.D. 2022-Aug-06 00:00:00.0000, 3.386826140218171E+08, 2.321307372378603E+08, 3.714990168760821E+06,
2459804.500000000, A.D. 2022-Aug-13 00:00:00.0000, 3.328781774729021E+08, 2.403488795268026E+08, 2.922639201439574E+06,
2459811.500000000, A.D. 2022-Aug-20 00:00:00.0000, 3.268403801297072E+08, 2.483983561402075E+08, 2.128232101567894E+06,
2459818.500000000, A.D. 2022-Aug-27 00:00:00.0000, 3.205733462702741E+08, 2.562734417988357E+08, 1.332325836359218E+06,
2459825.500000000, A.D. 2022-Sep-03 00:00:00.0000, 3.140812995628946E+08, 2.639684760593621E+08, 5.354786540707201E+05,
2459832.500000000, A.D. 2022-Sep-10 00:00:00.0000, 3.073685640310137E+08, 2.714778626172786E+08, -2.617498054019064E+05,
2459839.500000000, A.D. 2022-Sep-17 00:00:00.0000, 3.004395651776192E+08, 2.787960686443166E+08, -1.058798406571627E+06,
2459846.500000000, A.D. 2022-Sep-24 00:00:00.0000, 2.932988313252361E+08, 2.859176241167295E+08, -1.855104431399047E+06,
2459853.500000000, A.D. 2022-Oct-01 00:00:00.0000, 2.859509954078727E+08, 2.928371211201440E+08, -2.650103533897609E+06,
2459860.500000000, A.D. 2022-Oct-08 00:00:00.0000, 2.784007976197782E+08, 2.995492136609975E+08, -3.443229731977209E+06,
2459867.500000000, A.D. 2022-Oct-15 00:00:00.0000, 2.706530879855047E+08, 3.060486191891018E+08, -4.233915254244328E+06,
2459874.500000000, A.D. 2022-Oct-22 00:00:00.0000, 2.627128266621696E+08, 3.123301201541189E+08, -5.021590179928184E+06,
2459881.500000000, A.D. 2022-Oct-29 00:00:00.0000, 2.545850844688384E+08, 3.183885630151505E+08, -5.805682313651741E+06,
2459888.500000000, A.D. 2022-Nov-05 00:00:00.0000, 2.462750457424861E+08, 3.242188574533562E+08, -6.585617265032649E+06,
2459895.500000000, A.D. 2022-Nov-12 00:00:00.0000, 2.377880115508729E+08, 3.298159770603808E+08, -7.360818450498208E+06,
2459902.500000000, A.D. 2022-Nov-19 00:00:00.0000, 2.291294025366648E+08, 3.351749605560750E+08, -8.130707030129015E+06,
2459909.500000000, A.D. 2022-Nov-26 00:00:00.0000, 2.203047616487836E+08, 3.402909131471074E+08, -8.894701836867586E+06,
2459916.500000000, A.D. 2022-Dec-03 00:00:00.0000, 2.113197569202161E+08, 3.451590080248866E+08, -9.652219315087914E+06,
2459923.500000000, A.D. 2022-Dec-10 00:00:00.0000, 2.021801843306248E+08, 3.497744880328747E+08, -1.040267347202799E+07,
2459930.500000000, A.D. 2022-Dec-17 00:00:00.0000, 1.928919707714290E+08, 3.541326674911575E+08, -1.114547584732300E+07,
2459937.500000000, A.D. 2022-Dec-24 00:00:00.0000, 1.834611772160481E+08, 3.582289341264156E+08, -1.188003551708241E+07,
2459944.500000000, A.D. 2022-Dec-31 00:00:00.0000, 1.738940024466479E+08, 3.620587512297515E+08, -1.260575915770760E+07,
2459951.500000000, A.D. 2023-Jan-07 00:00:00.0000, 1.641967874547416E+08, 3.656176610198509E+08, -1.332205110355826E+07,
2459958.500000000, A.D. 2023-Jan-14 00:00:00.0000, 1.543760185421280E+08, 3.689012897193329E+08, -1.402831317892566E+07,
2459965.500000000, A.D. 2023-Jan-21 00:00:00.0000, 1.444383284645784E+08, 3.719053511821381E+08, -1.472394450509895E+07,
2459972.500000000, A.D. 2023-Jan-28 00:00:00.0000, 1.343904992745731E+08, 3.746256488954940E+08, -1.540834163619661E+07,
2459979.500000000, A.D. 2023-Feb-04 00:00:00.0000, 1.242394666460120E+08, 3.770580794010805E+08, -1.608089875925384E+07,
2459986.500000000, A.D. 2023-Feb-11 00:00:00.0000, 1.139923238725658E+08, 3.791986369552297E+08, -1.674100781124742E+07,
2459993.500000000, A.D. 2023-Feb-18 00:00:00.0000, 1.036563254608663E+08, 3.810434186209079E+08, -1.738805857600406E+07,
2460000.500000000, A.D. 2023-Feb-25 00:00:00.0000, 9.323889056538279E+07, 3.825886296474563E+08, -1.802143880008587E+07,
2460007.500000000, A.D. 2023-Mar-04 00:00:00.0000, 8.274760635070224E+07, 3.838305891750190E+08, -1.864053433749111E+07,
2460014.500000000, A.D. 2023-Mar-11 00:00:00.0000, 7.219023129249191E+07, 3.847657362814746E+08, -1.924472932786202E+07,
2460021.500000000, A.D. 2023-Mar-18 00:00:00.0000, 6.157469844511294E+07, 3.853906363377225E+08, -1.983340641855010E+07,
2460028.500000000, A.D. 2023-Mar-25 00:00:00.0000, 5.090911885652333E+07, 3.857019876374105E+08, -2.040594705467319E+07,
2460035.500000000, A.D. 2023-Apr-01 00:00:00.0000, 4.020178552724771E+07, 3.856966287085183E+08, -2.096173184536067E+07,
2460042.500000000, A.D. 2023-Apr-08 00:00:00.0000, 2.946117726724850E+07, 3.853715475500379E+08, -2.150014085157430E+07,
2460049.500000000, A.D. 2023-Apr-15 00:00:00.0000, 1.869596008291856E+07, 3.847238917055560E+08, -2.202055367386299E+07,
2460056.500000000, A.D. 2023-Apr-22 00:00:00.0000, 7.914987867441720E+06, 3.837509761381371E+08, -2.252234975728428E+07,
2460063.500000000, A.D. 2023-Apr-29 00:00:00.0000, -2.872694907577018E+06, 3.824502911837526E+08, -2.300490898383847E+07,
2460070.500000000, A.D. 2023-May-06 00:00:00.0000, -1.365785029309439E+07, 3.808195123847067E+08, -2.346761224972422E+07,
2460077.500000000, A.D. 2023-May-13 00:00:00.0000, -2.443104477196754E+07, 3.788565113212876E+08, -2.390984201406641E+07,
2460084.500000000, A.D. 2023-May-20 00:00:00.0000, -3.518264778766549E+07, 3.765593669608122E+08, -2.433098288374679E+07,
2460091.500000000, A.D. 2023-May-27 00:00:00.0000, -4.590283074813438E+07, 3.739263775042779E+08, -2.473042225773095E+07,
2460098.500000000, A.D. 2023-Jun-03 00:00:00.0000, -5.658156650018176E+07, 3.709560727646563E+08, -2.510755103744395E+07,
2460105.500000000, A.D. 2023-Jun-10 00:00:00.0000, -6.720862930726276E+07, 3.676472270687960E+08, -2.546176440997542E+07,
2460112.500000000, A.D. 2023-Jun-17 00:00:00.0000, -7.777359530211395E+07, 3.639988726256154E+08, -2.579246272067349E+07,
2460119.500000000, A.D. 2023-Jun-24 00:00:00.0000, -8.826584315887521E+07, 3.600103134154762E+08, -2.609905246336164E+07,
2460126.500000000, A.D. 2023-Jul-01 00:00:00.0000, -9.867455480095145E+07, 3.556811404250519E+08, -2.638094734725711E+07,
2460133.500000000, A.D. 2023-Jul-08 00:00:00.0000, -1.089887178913227E+08, 3.510112490441156E+08, -2.663756922396919E+07,
2460140.500000000, A.D. 2023-Jul-15 00:00:00.0000, -1.191971314540770E+08, 3.460008557801450E+08, -2.686834899208216E+07,
2460147.500000000, A.D. 2023-Jul-22 00:00:00.0000, -1.292884111850715E+08, 3.406505132288197E+08, -2.707272788818619E+07,
$$EOE